NORAD_CAT_ID,OBJECT_NAME,OBJECT_TYPE,EPOCH,MEAN_MOTION,ECCENTRICITY,INCLINATION,RA_OF_ASC_NODE,ARG_OF_PERICENTER,MEAN_ANOMALY,BSTAR,MEAN_MOTION_DOT,MEAN_MOTION_DDOT,TLE_LINE0,TLE_LINE1,TLE_LINE2,SEMIMAJOR_AXIS,PERIOD,APOGEE,PERIGEE,DECAYED
55275.0,STARLINK-5260,PAYLOAD,2023-02-14 08:00:01,15.69875426,0.0003511,70.0001,356.3847,277.4424,248.7026,0.00043018,0.00051729,0.0,0 STARLINK-5260,1 55275U 23010G   23045.33334491  .00051729  00000-0  43018-3 0  9997,2 55275  70.0001 356.3847 0003511 277.4424 248.7026 15.69875426  1306,6737.39,91.727,361.621,356.89,0.0
55275.0,STARLINK-5260,PAYLOAD,2023-02-15 06:13:59,15.69917314,0.0003397,70.0001,353.7805,276.4393,83.6415,-2.1673e-06,-4.73e-06,0.0,0 STARLINK-5260,1 55275U 23010G   23046.25971120 -.00000473  00000-0 -21673-5 0  9992,2 55275  70.0001 353.7805 0003397 276.4393  83.6415 15.69917314  4705,6737.271,91.725,361.424,356.847,0.0
55275.0,STARLINK-5260,PAYLOAD,2023-02-15 13:52:44,15.69936462,0.0003715,70.0002,352.8851,275.9284,84.1488,8.2706e-05,9.749e-05,0.0,0 STARLINK-5260,1 55275U 23010G   23046.57829217  .00009749  00000-0  82706-4 0  9992,2 55275  70.0002 352.8851 0003715 275.9284  84.1488 15.69936462  5076,6737.216,91.723,361.584,356.578,0.0
55275.0,STARLINK-5260,PAYLOAD,2023-02-15 18:28:00,15.69927816,0.0003656,70.0,352.347,280.4685,79.6099,0.00020121,0.00024055,0.0,0 STARLINK-5260,1 55275U 23010G   23046.76944514  .00024055  00000-0  20121-3 0  9990,2 55275  70.0000 352.3470 0003656 280.4685  79.6099 15.69927816  5100,6737.241,91.724,361.569,356.642,0.0
55275.0,STARLINK-5260,PAYLOAD,2023-02-15 23:03:14,15.69956518,0.0003553,70.0,351.8093,280.8849,79.1946,0.00032517,0.00039123,0.0,0 STARLINK-5260,1 55275U 23010G   23046.96059024  .00039123  00000-0  32517-3 0  9999,2 55275  70.0000 351.8093 0003553 280.8849  79.1946 15.69956518  4811,6737.158,91.722,361.417,356.63,0.0
55275.0,STARLINK-5260,PAYLOAD,2023-02-16 08:13:45,15.69929099,0.0003445,70.0007,350.7342,277.8502,82.2303,4.5805e-05,5.3e-05,0.0,0 STARLINK-5260,1 55275U 23010G   23047.34288972  .00005300  00000-0  45805-4 0  9993,2 55275  70.0007 350.7342 0003445 277.8502  82.2303 15.69929099  4877,6737.237,91.724,361.423,356.781,0.0
55275.0,STARLINK-5260,PAYLOAD,2023-02-16 12:49:01,15.69892077,0.0003113,70.0007,350.1965,288.6962,71.3896,-8.1492e-05,-9.986e-05,0.0,0 STARLINK-5260,1 55275U 23010G   23047.53405082 -.00009986  00000-0 -81492-4 0  9995,2 55275  70.0007 350.1965 0003113 288.6962  71.3896 15.69892077  5225,6737.343,91.726,361.305,357.11,0.0
55275.0,STARLINK-5260,PAYLOAD,2023-02-16 14:20:46,15.69896941,0.0003547,70.0007,350.0177,273.8514,86.2276,-6.2045e-05,-7.658e-05,0.0,0 STARLINK-5260,1 55275U 23010G   23047.59776518 -.00007658  00000-0 -62045-4 0  9993,2 55275  70.0007 350.0177 0003547 273.8514  86.2276 15.69896941  4915,6737.329,91.726,361.584,356.804,0.0
55275.0,STARLINK-5260,PAYLOAD,2023-02-16 21:59:32,15.69919935,0.0003385,70.0009,349.1218,269.1992,90.8816,0.00017735,0.00021162,0.0,0 STARLINK-5260,1 55275U 23010G   23047.91634854  .00021162  00000-0  17735-3 0  9994,2 55275  70.0009 349.1218 0003385 269.1992  90.8816 15.69919935  5281,6737.263,91.724,361.409,356.848,0.0
55275.0,STARLINK-5260,PAYLOAD,2023-02-17 22:00:00,15.70004654,0.0003583,70.0013,346.3094,274.8328,337.0676,-0.00060635,-0.00072739,0.0,0 STARLINK-5260,1 55275U 23010G   23048.91667824 -.00072739  00000-0 -60635-3 0  9993,2 55275  70.0013 346.3094 0003583 274.8328 337.0676 15.70004654  5121,6737.021,91.719,361.3,356.472,0.0
55275.0,STARLINK-5260,PAYLOAD,2023-02-18 06:06:20,15.69964019,0.0003474,70.0013,345.3595,276.2834,83.7966,0.00039263,0.00047344,0.0,0 STARLINK-5260,1 55275U 23010G   23049.25439919  .00047344  00000-0  39263-3 0  9998,2 55275  70.0013 345.3595 0003474 276.2834  83.7966 15.69964019  5173,6737.137,91.722,361.342,356.661,0.0
55275.0,STARLINK-5260,PAYLOAD,2023-02-18 10:41:34,15.69990934,0.0003506,70.0015,344.822,276.9177,83.162,0.00068983,0.000838,0.0,0 STARLINK-5260,1 55275U 23010G   23049.44554258  .00083800  00000-0  68983-3 0  9991,2 55275  70.0015 344.8220 0003506 276.9177  83.1620 15.69990934  5207,6737.06,91.72,361.287,356.563,0.0
55275.0,STARLINK-5260,PAYLOAD,2023-02-18 13:45:04,15.70002462,0.0003477,70.0014,344.4639,276.2608,83.8192,0.00076937,0.00093641,0.0,0 STARLINK-5260,1 55275U 23010G   23049.57297009  .00093641  00000-0  76937-3 0  9995,2 55275  70.0014 344.4639 0003477 276.2608  83.8192 15.70002462  5545,6737.027,91.72,361.234,356.55,0.0
55275.0,STARLINK-5260,PAYLOAD,2023-02-18 21:23:50,15.69924816,0.0003569,70.0015,343.5682,268.8434,91.2353,0.00029171,0.00035012,0.0,0 STARLINK-5260,1 55275U 23010G   23049.89155565  .00035012  00000-0  29171-3 0  9996,2 55275  70.0015 343.5682 0003569 268.8434  91.2353 15.69924816  5276,6737.249,91.724,361.519,356.71,0.0
55275.0,STARLINK-5260,PAYLOAD,2023-02-19 05:02:36,15.69902582,0.0003479,70.0016,342.6724,268.7898,91.29,0.00048372,0.00058305,0.0,0 STARLINK-5260,1 55275U 23010G   23050.21014563  .00058305  00000-0  48372-3 0  9990,2 55275  70.0016 342.6724 0003479 268.7898  91.2900 15.69902582  5327,6737.313,91.725,361.522,356.834,0.0
55275.0,STARLINK-5260,PAYLOAD,2023-02-19 12:41:22,15.69913279,0.0003492,70.0016,341.777,270.0583,90.0212,0.0004171,0.00050219,0.0,0 STARLINK-5260,1 55275U 23010G   23050.52873234  .00050219  00000-0  41710-3 0  9997,2 55275  70.0016 341.7770 0003492 270.0583  90.0212 15.69913279  5698,6737.282,91.725,361.5,356.794,0.0
55275.0,STARLINK-5260,PAYLOAD,2023-02-19 15:44:52,15.69911833,0.0003645,70.0017,341.4188,271.855,88.2229,0.00041045,0.00049409,0.0,0 STARLINK-5260,1 55275U 23010G   23050.65616801  .00049409  00000-0  41045-3 0  9996,2 55275  70.0017 341.4188 0003645 271.8550  88.2229 15.69911833  5390,6737.286,91.725,361.607,356.696,0.0
55275.0,STARLINK-5260,PAYLOAD,2023-02-20 08:34:08,15.69956965,0.0003409,70.0017,339.4483,267.2297,92.8508,0.00050634,0.00061199,0.0,0 STARLINK-5260,1 55275U 23010G   23051.35704838  .00061199  00000-0  50634-3 0  9996,2 55275  70.0017 339.4483 0003409 267.2297  92.8508 15.69956965  5509,6737.157,91.722,361.319,356.725,0.0
55275.0,STARLINK-5260,PAYLOAD,2023-02-20 13:09:24,15.69930744,0.0003446,70.0016,338.9111,271.185,88.8951,0.00041757,0.00050313,0.0,0 STARLINK-5260,1 55275U 23010G   23051.54820064  .00050313  00000-0  41757-3 0  9999,2 55275  70.0016 338.9111 0003446 271.1850  88.8951 15.69930744  5537,6737.232,91.724,361.419,356.775,0.0
55275.0,STARLINK-5260,PAYLOAD,2023-02-20 22:19:55,15.69930629,0.0003529,70.0015,337.8363,266.6599,93.4193,0.00056642,0.00068473,0.0,0 STARLINK-5260,1 55275U 23010G   23051.93050328  .00068473  00000-0  56642-3 0  9995,2 55275  70.0015 337.8363 0003529 266.6599  93.4193 15.69930629  5592,6737.232,91.724,361.475,356.72,0.0
55275.0,STARLINK-5260,PAYLOAD,2023-02-21 13:37:26,15.69935406,0.000356,70.0014,336.045,272.8109,87.2679,0.00048762,0.00058861,0.0,0 STARLINK-5260,1 55275U 23010G   23052.56766705  .00058861  00000-0  48762-3 0  9992,2 55275  70.0014 336.0450 0003560 272.8109  87.2679 15.69935406  5699,6737.219,91.724,361.482,356.685,0.0
55275.0,STARLINK-5260,PAYLOAD,2023-02-21 19:44:26,15.69940267,0.0003553,70.0013,335.3291,271.2634,88.8154,0.00013031,0.00015496,0.0,0 STARLINK-5260,1 55275U 23010G   23052.82253235  .00015496  00000-0  13031-3 0  9998,2 55275  70.0013 335.3291 0003553 271.2634  88.8154 15.69940267  5732,6737.205,91.723,361.464,356.676,0.0
55275.0,STARLINK-5260,PAYLOAD,2023-02-21 21:16:11,15.69949113,0.0003553,70.0013,335.15,271.9218,88.157,0.00021673,0.00025956,0.0,0 STARLINK-5260,1 55275U 23010G   23052.88624804  .00025956  00000-0  21673-3 0  9991,2 55275  70.0013 335.1500 0003553 271.9218  88.1570 15.69949113  6069,6737.18,91.723,361.438,356.651,0.0
55275.0,STARLINK-5260,PAYLOAD,2023-02-22 04:54:57,15.69917142,0.0002792,70.0009,334.254,281.2498,78.8384,0.0001948,0.00023266,0.0,0 STARLINK-5260,1 55275U 23010G   23053.20483636  .00023266  00000-0  19480-3 0  9999,2 55275  70.0009 334.2540 0002792 281.2498  78.8384 15.69917142  5791,6737.271,91.725,361.017,357.255,0.0
55275.0,STARLINK-5260,PAYLOAD,2023-02-22 21:44:14,15.69943557,0.0003591,70.0008,332.2832,300.9396,59.1446,0.00031468,0.00037828,0.0,0 STARLINK-5260,1 55275U 23010G   23053.90572105  .00037828  00000-0  31468-3 0  9995,2 55275  70.0008 332.2832 0003591 300.9396  59.1446 15.69943557  6225,6737.195,91.723,361.48,356.641,0.0
55275.0,STARLINK-5260,PAYLOAD,2023-02-23 03:51:14,15.69956234,0.0003273,70.0008,331.567,273.3674,86.7147,0.00030769,0.00036996,0.0,0 STARLINK-5260,1 55275U 23010G   23054.16058173  .00036996  00000-0  30769-3 0  9996,2 55275  70.0008 331.5670 0003273 273.3674  86.7147 15.69956234  6260,6737.159,91.722,361.229,356.819,0.0
55275.0,STARLINK-5260,PAYLOAD,2023-02-23 19:08:45,15.69929277,0.0003393,70.0005,329.7758,277.1777,82.9033,0.00013325,0.00015843,0.0,0 STARLINK-5260,1 55275U 23010G   23054.79775378  .00015843  00000-0  13325-3 0  9995,2 55275  70.0005 329.7758 0003393 277.1777  82.9033 15.69929277  6362,6737.236,91.724,361.387,356.815,0.0
55275.0,STARLINK-5260,PAYLOAD,2023-02-23 22:12:16,15.69941822,0.0003275,70.0005,329.4167,271.6602,88.4218,0.0002951,0.00035446,0.0,0 STARLINK-5260,1 55275U 23010G   23054.92518684  .00035446  00000-0  29510-3 0  9999,2 55275  70.0005 329.4167 0003275 271.6602  88.4218 15.69941822  6061,6737.2,91.723,361.272,356.859,0.0
55275.0,STARLINK-5260,PAYLOAD,2023-02-24 04:19:16,15.69949374,0.0003187,70.0006,328.7004,273.5061,86.5771,0.00025228,0.00030262,0.0,0 STARLINK-5260,1 55275U 23010G   23055.18005102  .00030262  00000-0  25228-3 0  9997,2 55275  70.0006 328.7004 0003187 273.5061  86.5771 15.69949374  6429,6737.179,91.723,361.191,356.897,0.0
55275.0,STARLINK-5260,PAYLOAD,2023-02-24 18:05:02,15.69929576,0.0002943,70.0005,327.0881,272.4502,87.6356,0.0001035,0.00012253,0.0,0 STARLINK-5260,1 55275U 23010G   23055.75350467  .00012253  00000-0  10350-3 0  9997,2 55275  70.0005 327.0881 0002943 272.4502  87.6356 15.69929576  6197,6737.235,91.724,361.083,357.118,0.0
